$$SOE
2461295.500000000, A.D. 2026-Sep-12 00:00:00.0000, 4.212337677615399E+08, 2.352123256611651E+08, 6.756554948688054E+07,
2461302.500000000, A.D. 2026-Sep-19 00:00:00.0000, 4.159124197932562E+08, 2.435379132015438E+08, 6.852515041458055E+07,
2461309.500000000, A.D. 2026-Sep-26 00:00:00.0000, 4.104160722092965E+08, 2.517609946280328E+08, 6.945591410976589E+07,
2461316.500000000, A.D. 2026-Oct-03 00:00:00.0000, 4.047466633780793E+08, 2.598778789620230E+08, 7.035738583915508E+07,
2461323.500000000, A.D. 2026-Oct-10 00:00:00.0000, 3.989062116407009E+08, 2.678849026791236E+08, 7.122912090902254E+07,
2461330.500000000, A.D. 2026-Oct-17 00:00:00.0000, 3.928968151558657E+08, 2.757784314936517E+08, 7.207068493965474E+07,
2461337.500000000, A.D. 2026-Oct-24 00:00:00.0000, 3.867206516996166E+08, 2.835548620649163E+08, 7.288165413304329E+07,
2461344.500000000, A.D. 2026-Oct-31 00:00:00.0000, 3.803799785167968E+08, 2.912106235569189E+08, 7.366161551879069E+07,
2461351.500000000, A.D. 2026-Nov-07 00:00:00.0000, 3.738771325610152E+08, 2.987421791240784E+08, 7.441016715256900E+07,
2461358.500000000, A.D. 2026-Nov-14 00:00:00.0000, 3.672145313213498E+08, 3.061460282090138E+08, 7.512691832053383E+07,
2461365.500000000, A.D. 2026-Nov-21 00:00:00.0000, 3.603946724202375E+08, 3.134187103333979E+08, 7.581148997094275E+07,
2461372.500000000, A.D. 2026-Nov-28 00:00:00.0000, 3.534201309819560E+08, 3.205568073758411E+08, 7.646351521926993E+07,
2461379.500000000, A.D. 2026-Dec-05 00:00:00.0000, 3.462935583928945E+08, 3.275569436825185E+08, 7.708263954260793E+07,
2461386.500000000, A.D. 2026-Dec-12 00:00:00.0000, 3.390176826195517E+08, 3.344157871203787E+08, 7.766852090294239E+07,
2461393.500000000, A.D. 2026-Dec-19 00:00:00.0000, 3.315953081962370E+08, 3.411300510777254E+08, 7.822082997298634E+07,
2461400.500000000, A.D. 2026-Dec-26 00:00:00.0000, 3.240293157392710E+08, 3.476964965427439E+08, 7.873925040676776E+07,
2461407.500000000, A.D. 2027-Jan-02 00:00:00.0000, 3.163226612624104E+08, 3.541119340674298E+08, 7.922347911397347E+07,
2461414.500000000, A.D. 2027-Jan-09 00:00:00.0000, 3.084783754087036E+08, 3.603732256352761E+08, 7.967322652871531E+07,
2461421.500000000, A.D. 2027-Jan-16 00:00:00.0000, 3.004995626317464E+08, 3.664772864397065E+08, 8.008821686985053E+07,
2461428.500000000, A.D. 2027-Jan-23 00:00:00.0000, 2.923894003695424E+08, 3.724210865318936E+08, 8.046818838502045E+07,
2461435.500000000, A.D. 2027-Jan-30 00:00:00.0000, 2.841511383958323E+08, 3.782016522886865E+08, 8.081289355693279E+07,
2461442.500000000, A.D. 2027-Feb-06 00:00:00.0000, 2.757880987712309E+08, 3.838160680393732E+08, 8.112209926041624E+07,
2461449.500000000, A.D. 2027-Feb-13 00:00:00.0000, 2.673036759318932E+08, 3.892614790687092E+08, 8.139558701152140E+07,
2461456.500000000, A.D. 2027-Feb-20 00:00:00.0000, 2.587013345483179E+08, 3.945350952017759E+08, 8.163315345967278E+07,
2461463.500000000, A.D. 2027-Feb-27 00:00:00.0000, 2.499846065468037E+08, 3.996341917562884E+08, 8.183461073190355E+07,
2461470.500000000, A.D. 2027-Mar-06 00:00:00.0000, 2.411570903117830E+08, 4.045561097849916E+08, 8.199978650961024E+07,
2461477.500000000, A.D. 2027-Mar-13 00:00:00.0000, 2.322224504685134E+08, 4.092982576549413E+08, 8.212852415129781E+07,
2461484.500000000, A.D. 2027-Mar-20 00:00:00.0000, 2.231844171152192E+08, 4.138581131263787E+08, 8.222068289587301E+07,
2461491.500000000, A.D. 2027-Mar-27 00:00:00.0000, 2.140467847056396E+08, 4.182332253803220E+08, 8.227613808258402E+07,
2461498.500000000, A.D. 2027-Apr-03 00:00:00.0000, 2.048134107842414E+08, 4.224212169452587E+08, 8.229478136466253E+07,
2461505.500000000, A.D. 2027-Apr-10 00:00:00.0000, 1.954882146348241E+08, 4.264197855439919E+08, 8.227652091251773E+07,
2461512.500000000, A.D. 2027-Apr-17 00:00:00.0000, 1.860751758641176E+08, 4.302267058442185E+08, 8.222128160287467E+07,
2461519.500000000, A.D. 2027-Apr-24 00:00:00.0000, 1.765783329991149E+08, 4.338398310485566E+08, 8.212900518113393E+07,
2461526.500000000, A.D. 2027-May-01 00:00:00.0000, 1.670017823973676E+08, 4.372570943499225E+08, 8.199965037146455E+07,
2461533.500000000, A.D. 2027-May-08 00:00:00.0000, 1.573496777777796E+08, 4.404765109991422E+08, 8.183319296745750E+07,
2461540.500000000, A.D. 2027-May-15 00:00:00.0000, 1.476262288758759E+08, 4.434961819356371E+08, 8.162962611808649E+07,
2461547.500000000, A.D. 2027-May-22 00:00:00.0000, 1.378356976587983E+08, 4.463142963851173E+08, 8.138896073964810E+07,
2461554.500000000, A.D. 2027-May-29 00:00:00.0000, 1.279823954542171E+08, 4.489291319546732E+08, 8.111122562597504E+07,
2461561.500000000, A.D. 2027-Jun-05 00:00:00.0000, 1.180706818793354E+08, 4.513390553570212E+08, 8.079646743215013E+07,
2461568.500000000, A.D. 2027-Jun-12 00:00:00.0000, 1.081049635637803E+08, 4.535425241929751E+08, 8.044475075076717E+07,
2461575.500000000, A.D. 2027-Jun-19 00:00:00.0000, 9.808969233571017E+07, 4.555380888541774E+08, 8.005615823435062E+07,
2461582.500000000, A.D. 2027-Jun-26 00:00:00.0000, 8.802936315130581E+07, 4.573243942822656E+08, 7.963079071677166E+07,
2461589.500000000, A.D. 2027-Jul-03 00:00:00.0000, 7.792851190097132E+07, 4.589001815898775E+08, 7.916876732191491E+07,
2461596.500000000, A.D. 2027-Jul-10 00:00:00.0000, 6.779171313025022E+07, 4.602642895485949E+08, 7.867022555637705E+07,
2461603.500000000, A.D. 2027-Jul-17 00:00:00.0000, 5.762357771240517E+07, 4.614156559008221E+08, 7.813532137899914E+07,
2461610.500000000, A.D. 2027-Jul-24 00:00:00.0000, 4.742875062888000E+07, 4.623533184289622E+08, 7.756422922723737E+07,
2461617.500000000, A.D. 2027-Jul-31 00:00:00.0000, 3.721190926847146E+07, 4.630764160149782E+08, 7.695714198189640E+07,
2461624.500000000, A.D. 2027-Aug-07 00:00:00.0000, 2.697776204482116E+07, 4.635841908415763E+08, 7.631427098332334E+07,
2461631.500000000, A.D. 2027-Aug-14 00:00:00.0000, 1.673104503358650E+07, 4.638759914806607E+08, 7.563584628968948E+07,
2461638.500000000, A.D. 2027-Aug-21 00:00:00.0000, 6.476517249283036E+06, 4.639512735009980E+08, 7.492211684528551E+07,
2461645.500000000, A.D. 2027-Aug-28 00:00:00.0000, -3.781042006691674E+06, 4.638095987969674E+08, 7.417335034264457E+07,
2461652.500000000, A.D. 2027-Sep-04 00:00:00.0000, -1.403683490506997E+07, 4.634506361404949E+08, 7.338983309132877E+07,
2461659.500000000, A.D. 2027-Sep-11 00:00:00.0000, -2.428604734698626E+07, 4.628741622917580E+08, 7.257186996647519E+07,
2461666.500000000, A.D. 2027-Sep-18 00:00:00.0000, -3.452385158639359E+07, 4.620800630150459E+08, 7.171978437091550E+07,
2461673.500000000, A.D. 2027-Sep-25 00:00:00.0000, -4.474540898598728E+07, 4.610683339195281E+08, 7.083391818289492E+07,
2461680.500000000, A.D. 2027-Oct-02 00:00:00.0000, -5.494587282959674E+07, 4.598390811503302E+08, 6.991463168421870E+07,
2461687.500000000, A.D. 2027-Oct-09 00:00:00.0000, -6.512039116636670E+07, 4.583925219234632E+08, 6.896230346591771E+07,
2461694.500000000, A.D. 2027-Oct-16 00:00:00.0000, -7.526410962115748E+07, 4.567289848478578E+08, 6.797733030073473E+07,
2461701.500000000, A.D. 2027-Oct-23 00:00:00.0000, -8.537217390882786E+07, 4.548489100270058E+08, 6.696012695779228E+07,
2461708.500000000, A.D. 2027-Oct-30 00:00:00.0000, -9.543973167537400E+07, 4.527528495491252E+08, 6.591112597477838E+07,
2461715.500000000, A.D. 2027-Nov-06 00:00:00.0000, -1.054619348267240E+08, 4.504414694936802E+08, 6.483077758657965E+07,
2461722.500000000, A.D. 2027-Nov-13 00:00:00.0000, -1.154339443263146E+08, 4.479155513767096E+08, 6.371954982249913E+07,
2461729.500000000, A.D. 2027-Nov-20 00:00:00.0000, -1.253509345562639E+08, 4.451759908447881E+08, 6.257792832674447E+07,
2461736.500000000, A.D. 2027-Nov-27 00:00:00.0000, -1.352080956236213E+08, 4.422237965809588E+08, 6.140641599642894E+07,
2461743.500000000, A.D. 2027-Dec-04 00:00:00.0000, -1.450006356321767E+08, 4.390600903375842E+08, 6.020553269778344E+07,
2461750.500000000, A.D. 2027-Dec-11 00:00:00.0000, -1.547237834662830E+08, 4.356861071311041E+08, 5.897581503229326E+07,
2461757.500000000, A.D. 2027-Dec-18 00:00:00.0000, -1.643727918081657E+08, 4.321031952581074E+08, 5.771781609988135E+07,
2461764.500000000, A.D. 2027-Dec-25 00:00:00.0000, -1.739429402332809E+08, 4.283128161295713E+08, 5.643210524517718E+07,
2461771.500000000, A.D. 2028-Jan-01 00:00:00.0000, -1.834295383386133E+08, 4.243165439371065E+08, 5.511926778444692E+07,
$$EOE